OBJECT_NAME,OBJECT_ID,EPOCH,MEAN_MOTION,ECCENTRICITY,INCLINATION,RA_OF_ASC_NODE,ARG_OF_PERICENTER,MEAN_ANOMALY,EPHEMERIS_TYPE,CLASSIFICATION_TYPE,NORAD_CAT_ID,ELEMENT_SET_NO,REV_AT_EPOCH,BSTAR,MEAN_MOTION_DOT,MEAN_MOTION_DDOT
ONEWEB-0230,2021-045C,2026-06-13T19:38:14.597664,13.15548183,.0002035,87.9001,259.8747,95.8160,264.3202,0,U,48769,999,24422,-.30199E-3,-.101E-5,0
ONEWEB-0237,2021-045D,2026-06-13T19:22:15.125664,13.15546725,.000172,87.9001,259.8787,101.4745,258.6579,0,U,48770,999,24394,.18919E-4,.2E-6,0
ONEWEB-0235,2021-045E,2026-06-13T18:45:46.084032,13.15547973,.0001596,87.9008,259.8693,107.5356,252.5949,0,U,48771,999,24393,.23223E-4,.22E-6,0
ONEWEB-0242,2021-045F,2026-06-13T18:36:36.880704,13.15546431,.0001781,87.9010,259.8674,98.4050,261.7282,0,U,48772,999,24397,-.14801E-4,.7E-7,0
ONEWEB-0241,2021-045G,2026-06-13T18:18:23.433408,13.15548299,.0001782,87.8998,259.8885,112.6106,247.5213,0,U,48773,999,24388,-.50082E-3,-.176E-5,0
ONEWEB-0243,2021-045H,2026-06-13T19:04:00.981120,13.15548409,.0001485,87.9000,259.8944,92.2684,267.8616,0,U,48774,999,24391,.25406E-3,.108E-5,0
ONEWEB-0222,2021-045J,2026-06-13T18:40:03.364608,13.15548517,.0001799,87.9007,259.8652,106.3367,253.7961,0,U,48775,999,24395,-.10018E-4,.9E-7,0
ONEWEB-0244,2021-045K,2026-06-13T19:17:42.518112,13.15548297,.0001823,87.9015,259.8543,100.9220,259.2116,0,U,48776,999,24452,.13729E-3,.65E-6,0
ONEWEB-0247,2021-045L,2026-06-13T19:13:07.977792,13.15547279,.0001121,87.9001,259.8878,99.8017,260.3240,0,U,48777,999,24396,.27203E-3,.115E-5,0
ONEWEB-0245,2021-045M,2026-06-13T19:06:17.313408,13.15547527,.0001906,87.9010,259.8674,105.8879,254.2461,0,U,48778,999,24393,.29251E-3,.123E-5,0
ONEWEB-0229,2021-045N,2026-06-13T18:59:27.177792,13.15548291,.0001851,87.9010,259.8664,98.6211,261.5129,0,U,48779,999,24396,.18737E-3,.83E-6,0
ONEWEB-0228,2021-045P,2026-06-13T19:47:32.576640,13.15546974,.0001895,87.9015,259.8520,101.9416,258.1927,0,U,48780,999,24388,-.44863E-3,-.156E-5,0
ONEWEB-0232,2021-045Q,2026-06-13T19:10:50.680416,13.15550216,.0001961,87.9013,259.8583,102.9652,257.1697,0,U,48781,999,24420,.28585E-3,.12E-5,0
ONEWEB-0231,2021-045R,2026-06-13T16:49:23.301696,13.15548024,.0001783,87.9003,259.8912,105.9959,254.1368,0,U,48782,999,24388,.12847E-4,.18E-6,0
ONEWEB-0234,2021-045S,2026-06-13T17:43:57.345024,13.15548791,.0002669,87.9010,259.8651,112.4347,247.7066,0,U,48783,999,24402,-.16566E-3,-.5E-6,0
ONEWEB-0238,2021-045T,2026-06-13T19:33:51.475968,13.15546899,.0002284,87.9016,259.8441,108.1225,252.0154,0,U,48784,999,24393,-.13945E-3,-.4E-6,0
ONEWEB-0240,2021-045U,2026-06-13T18:14:56.830272,13.15547372,.0001844,87.9012,259.8656,110.6035,249.5293,0,U,48785,999,24395,-.31385E-3,-.105E-5,0
ONEWEB-0246,2021-045V,2026-06-13T18:06:58.480992,13.15549004,.0001879,87.9011,259.8707,97.8313,262.3031,0,U,48786,999,24382,-.42571E-3,-.147E-5,0
ONEWEB-0210,2021-045W,2026-06-13T19:19:57.958752,13.15550815,.0001168,87.9011,259.8579,84.5335,275.5929,0,U,48787,999,24387,.10613E-3,.53E-6,0
ONEWEB-0214,2021-045X,2026-06-13T19:32:31.936128,13.15548597,.0001847,87.9012,259.8527,89.7023,270.4319,0,U,48788,999,24384,-.34017E-3,-.115E-5,0
ONEWEB-0221,2021-045Y,2026-06-13T19:42:48.255840,13.15548181,.0001783,87.9012,259.8600,103.2873,256.8456,0,U,48789,999,24393,-.32949E-3,-.111E-5,0
ONEWEB-0213,2021-045Z,2026-06-13T19:26:48.834816,13.15546867,.0001655,87.9011,259.8656,101.5886,258.5430,0,U,48790,999,24399,-.107E-3,-.27E-6,0
ONEWEB-0212,2021-045AA,2026-06-13T18:53:44.734848,13.15549711,.0002019,87.9009,259.8647,101.7310,258.4046,0,U,48791,999,24398,.21414E-3,.93E-6,0
ONEWEB-0227,2021-045AB,2026-06-13T18:52:36.711264,13.15548830,.0001895,87.9008,259.8657,102.9385,257.1957,0,U,48792,999,24393,.28178E-3,.119E-5,0
ONEWEB-0226,2021-045AC,2026-06-13T18:43:27.976224,13.15550037,.0001704,87.9005,259.8717,98.9039,261.2284,0,U,48793,999,24390,.1834E-3,.82E-6,0
ONEWEB-0224,2021-045AD,2026-06-13T19:40:30.168768,13.15546656,.0002276,87.9003,259.8976,123.4972,236.6376,0,U,48794,999,24383,-.37628E-3,-.129E-5,0
ONEWEB-0233,2021-045AE,2026-06-13T17:57:38.641824,13.15548434,.0001745,87.9001,259.9195,107.2059,252.9262,0,U,48795,999,24384,-.29121E-3,-.97E-6,0
ONEWEB-0190,2021-045AF,2026-06-13T19:29:05.574048,13.15546916,.000131,87.9004,259.8687,108.1562,251.9711,0,U,48796,999,24392,-.17551E-3,-.53E-6,0
ONEWEB-0236,2021-045AG,2026-06-13T18:04:41.618208,13.15547714,.000212,87.9000,259.8908,102.4960,257.6407,0,U,48797,999,24380,-.33384E-3,-.113E-5,0
ONEWEB-0248,2021-045AH,2026-06-13T18:22:55.983072,13.15546993,.0001711,87.9009,259.8713,114.3799,245.7510,0,U,48798,999,24396,-.33215E-3,-.112E-5,0
