ONEWEB-0230             
1 48769U 21045C   26164.81822451 -.00000101  00000+0 -30199-3 0  9994
2 48769  87.9001 259.8747 0002035  95.8160 264.3202 13.15548183244224
ONEWEB-0237             
1 48770U 21045D   26164.80711951  .00000020  00000+0  18919-4 0  9992
2 48770  87.9001 259.8787 0001720 101.4745 258.6579 13.15546725243944
ONEWEB-0235             
1 48771U 21045E   26164.78178338  .00000022  00000+0  23223-4 0  9992
2 48771  87.9008 259.8693 0001596 107.5356 252.5949 13.15547973243933
ONEWEB-0242             
1 48772U 21045F   26164.77542686  .00000007  00000+0 -14801-4 0  9999
2 48772  87.9010 259.8674 0001781  98.4050 261.7282 13.15546431243975
ONEWEB-0241             
1 48773U 21045G   26164.76277122 -.00000176  00000+0 -50082-3 0  9997
2 48773  87.8998 259.8885 0001782 112.6106 247.5213 13.15548299243886
ONEWEB-0243             
1 48774U 21045H   26164.79445580  .00000108  00000+0  25406-3 0  9991
2 48774  87.9000 259.8944 0001485  92.2684 267.8616 13.15548409243911
ONEWEB-0222             
1 48775U 21045J   26164.77781672  .00000009  00000+0 -10018-4 0  9990
2 48775  87.9007 259.8652 0001799 106.3367 253.7961 13.15548517243959
ONEWEB-0244             
1 48776U 21045K   26164.80396433  .00000065  00000+0  13729-3 0  9994
2 48776  87.9015 259.8543 0001823 100.9220 259.2116 13.15548297244526
ONEWEB-0247             
1 48777U 21045L   26164.80078678  .00000115  00000+0  27203-3 0  9991
2 48777  87.9001 259.8878 0001121  99.8017 260.3240 13.15547279243961
ONEWEB-0245             
1 48778U 21045M   26164.79603372  .00000123  00000+0  29251-3 0  9999
2 48778  87.9010 259.8674 0001906 105.8879 254.2461 13.15547527243931
ONEWEB-0229             
1 48779U 21045N   26164.79128678  .00000083  00000+0  18737-3 0  9993
2 48779  87.9010 259.8664 0001851  98.6211 261.5129 13.15548291243963
ONEWEB-0228             
1 48780U 21045P   26164.82468260 -.00000156  00000+0 -44863-3 0  9995
2 48780  87.9015 259.8520 0001895 101.9416 258.1927 13.15546974243889
ONEWEB-0232             
1 48781U 21045Q   26164.79919769  .00000120  00000+0  28585-3 0  9999
2 48781  87.9013 259.8583 0001961 102.9652 257.1697 13.15550216244208
ONEWEB-0231             
1 48782U 21045R   26164.70096414  .00000018  00000+0  12847-4 0  9995
2 48782  87.9003 259.8912 0001783 105.9959 254.1368 13.15548024243888
ONEWEB-0234             
1 48783U 21045S   26164.73885816 -.00000050  00000+0 -16566-3 0  9990
2 48783  87.9010 259.8651 0002669 112.4347 247.7066 13.15548791244026
ONEWEB-0238             
1 48784U 21045T   26164.81517912 -.00000040  00000+0 -13945-3 0  9996
2 48784  87.9016 259.8441 0002284 108.1225 252.0154 13.15546899243933
ONEWEB-0240             
1 48785U 21045U   26164.76037998 -.00000105  00000+0 -31385-3 0  9992
2 48785  87.9012 259.8656 0001844 110.6035 249.5293 13.15547372243950
ONEWEB-0246             
1 48786U 21045V   26164.75484353 -.00000147  00000+0 -42571-3 0  9998
2 48786  87.9011 259.8707 0001879  97.8313 262.3031 13.15549004243823
ONEWEB-0210             
1 48787U 21045W   26164.80553193  .00000053  00000+0  10613-3 0  9990
2 48787  87.9011 259.8579 0001168  84.5335 275.5929 13.15550815243878
ONEWEB-0214             
1 48788U 21045X   26164.81425852 -.00000115  00000+0 -34017-3 0  9997
2 48788  87.9012 259.8527 0001847  89.7023 270.4319 13.15548597243846
ONEWEB-0221             
1 48789U 21045Y   26164.82139185 -.00000111  00000+0 -32949-3 0  9998
2 48789  87.9012 259.8600 0001783 103.2873 256.8456 13.15548181243932
ONEWEB-0213             
1 48790U 21045Z   26164.81028744 -.00000027  00000+0 -10700-3 0  9994
2 48790  87.9011 259.8656 0001655 101.5886 258.5430 13.15546867243993
ONEWEB-0212             
1 48791U 21045AA  26164.78732332  .00000093  00000+0  21414-3 0  9991
2 48791  87.9009 259.8647 0002019 101.7310 258.4046 13.15549711243982
ONEWEB-0227             
1 48792U 21045AB  26164.78653601  .00000119  00000+0  28178-3 0  9996
2 48792  87.9008 259.8657 0001895 102.9385 257.1957 13.15548830243932
ONEWEB-0226             
1 48793U 21045AC  26164.78018491  .00000082  00000+0  18340-3 0  9998
2 48793  87.9005 259.8717 0001704  98.9039 261.2284 13.15550037243904
ONEWEB-0224             
1 48794U 21045AD  26164.81979362 -.00000129  00000+0 -37628-3 0  9990
2 48794  87.9003 259.8976 0002276 123.4972 236.6376 13.15546656243837
ONEWEB-0233             
1 48795U 21045AE  26164.74836391 -.00000097  00000+0 -29121-3 0  9990
2 48795  87.9001 259.9195 0001745 107.2059 252.9262 13.15548434243848
ONEWEB-0190             
1 48796U 21045AF  26164.81187007 -.00000053  00000+0 -17551-3 0  9998
2 48796  87.9004 259.8687 0001310 108.1562 251.9711 13.15546916243924
ONEWEB-0236             
1 48797U 21045AG  26164.75325947 -.00000113  00000+0 -33384-3 0  9998
2 48797  87.9000 259.8908 0002120 102.4960 257.6407 13.15547714243805
ONEWEB-0248             
1 48798U 21045AH  26164.76592573 -.00000112  00000+0 -33215-3 0  9993
2 48798  87.9009 259.8713 0001711 114.3799 245.7510 13.15546993243964
